[{"OBJECT_NAME":"STARLINK-35039","OBJECT_ID":"2025-194T","EPOCH":"2026-03-09T12:40:07.448736","MEAN_MOTION":15.05635311,"ECCENTRICITY":0.00030853,"INCLINATION":97.6025,"RA_OF_ASC_NODE":284.239,"ARG_OF_PERICENTER":77.2772,"MEAN_ANOMALY":282.88,"EPHEMERIS_TYPE":0,"CLASSIFICATION_TYPE":"U","NORAD_CAT_ID":65451,"ELEMENT_SET_NO":999,"REV_AT_EPOCH":2962,"BSTAR":0.00094098596,"MEAN_MOTION_DOT":0.00013538,"MEAN_MOTION_DDOT":0},{"OBJECT_NAME":"COSMOS 886 DEB","OBJECT_ID":"1976-126H","EPOCH":"2026-03-09T13:45:20.274912","MEAN_MOTION":13.34259572,"ECCENTRICITY":0.0780969,"INCLINATION":65.7903,"RA_OF_ASC_NODE":130.587,"ARG_OF_PERICENTER":142.7819,"MEAN_ANOMALY":223.008,"EPHEMERIS_TYPE":0,"CLASSIFICATION_TYPE":"U","NORAD_CAT_ID":9651,"ELEMENT_SET_NO":999,"REV_AT_EPOCH":33873,"BSTAR":0.00068915,"MEAN_MOTION_DOT":1.985e-5,"MEAN_MOTION_DDOT":0}]
